317P/WISE,e,11.9739,275.4704,334.8635,2.960082,0.1935301,0.57188287,292.2864,11/15.0/2024,2000,g 17.5,4.0
# From MPC102103
318P/McNaught-Hartley,e,17.8707,35.5805,313.3254,7.512657,0.0478645,0.67376143,158.4160,11/15.0/2024,2000,g  8.5,6.0
# From MPC 97499
319P/Catalina-McNaught,e,15.0942,111.3456,203.6382,3.563073,0.1465436,0.66627554,140.6978,11/15.0/2024,2000,g 15.0,4.0
# From MPC 96281
320P/McNaught,e,4.9027,295.9394,0.7655,3.095510,0.1809696,0.68479792,253.2341,11/15.0/2024,2000,g 20.5,4.0
# From MPC105243
321P/SOHO,e,20.0657,165.0205,172.7456,2.422187,0.2614524,0.98102653,0.0000,10/26.5844/2023,2000,g 20.0,4.0
# From MPC102103
322P/SOHO,e,11.4597,351.4260,56.9938,2.508495,0.2480757,0.97996831,0.0000,08/21.1241/2023,2000,g 19.0,4.0
# From MPEC 2023-XP6
323P/SOHO,e,5.3271,324.2805,353.1249,2.583930,0.2372919,0.98461345,0.0000,03/14.2955/2025,2000,g 20.0,4.0
# From MPEC 2024-F21
323P-B/SOHO,e,5.4589,323.4623,353.9661,2.889376,0.2006771,0.98611297,0.0000,12/16.2783/2025,2000,g 26.0,4.0
# From MPEC 2024-F21
323P-C/SOHO,e,5.3401,324.1988,353.2064,2.610877,0.2336278,0.98476184,0.0000,04/07.1027/2025,2000,g 27.0,4.0
# From MPEC 2021-W31
324P/LaSagra,e,21.3991,270.5706,57.4998,3.096485,0.1808842,0.15295642,233.5669,11/15.0/2024,2000,g 13.0,4.0
# From MPEC 2024-LE0
325P/Yang-Gao,e,16.8489,256.8553,344.9380,3.547263,0.1475244,0.58837598,142.3728,11/15.0/2024,2000,g 14.0,4.0
# From MPEC 2024-LE0
326P/Hill,e,2.4728,99.7604,278.4321,4.071663,0.1199627,0.32046985,38.5617,11/15.0/2024,2000,g 13.5,4.0
# From MPEC 2024-M41
327P/VanNess,e,36.2394,173.9954,185.0440,3.562735,0.1465645,0.56272517,117.9643,11/15.0/2024,2000,g 16.0,4.0
# From MPEC 2024-VJ2
328P/LONEOS-Tucker,e,17.6724,341.6021,30.6669,4.190301,0.1149043,0.55291910,12.6443,11/15.0/2024,2000,g 14.5,4.0
# From MPC101101
329P/LINEAR-Catalina,e,21.7187,87.6876,343.5820,5.183611,0.0835133,0.67888722,272.7723,11/15.0/2024,2000,g 13.5,4.0
# From MPEC 2023-J29
330P/Catalina,e,15.7360,293.0816,188.8217,6.616395,0.0579124,0.55027931,173.7240,11/15.0/2024,2000,g 12.0,4.0
# From MPEC 2024-Q20
331P/Gibbs,e,9.7401,216.7478,185.3298,3.003588,0.1893405,0.04151837,283.6363,11/15.0/2024,2000,g 12.0,4.0
# From MPEC 2016-K18
332P/Ikeya-Murakami,e,9.3841,3.7558,152.2887,3.086499,0.1817627,0.48963527,215.3393,11/15.0/2024,2000,g 18.0,4.0
# From MPEC 2016-K18
332P-A/Ikeya-Murakami,e,9.3844,152.3112,3.7338,3.086488,0.1817637,0.48964143,215.3384,11/15.0/2024,2000,g  9.0,4.0
# From MPEC 2016-EI8
332P-B/Ikeya-Murakami,e,9.3805,3.8028,152.3711,3.082329,0.1821317,0.48970701,359.9699,03/17.0/2016,2000,g 19.0,4.0
# From MPEC 2016-K18
332P-C/Ikeya-Murakami,e,9.3835,152.3025,3.7343,3.086454,0.1817667,0.48964699,215.3561,11/15.0/2024,2000,g 16.5,4.0
# From MPEC 2016-ED0
332P-D/Ikeya-Murakami,e,9.3761,3.7923,152.4393,3.081138,0.1822373,0.48977814,359.9486,03/17.0/2016,2000,g 19.0,4.0
# From MPEC 2016-ED0
332P-E/Ikeya-Murakami,e,9.3774,3.8228,152.2825,3.079877,0.1823493,0.48922008,359.9889,03/17.0/2016,2000,g 21.0,4.0
# From MPEC 2016-ED0
332P-F/Ikeya-Murakami,e,9.5293,3.4757,152.8203,3.163214,0.1751908,0.49918860,359.8501,03/17.0/2016,2000,g 21.0,4.0
# From MPEC 2016-ED0
332P-G/Ikeya-Murakami,e,9.2523,3.6955,154.4000,3.050519,0.1849880,0.49200362,359.9006,03/19.0/2016,2000,g 19.0,4.0
# From MPC100285
332P-H/Ikeya-Murakami,e,9.3840,152.3031,3.7340,3.086636,0.1817507,0.48968275,215.2719,11/15.0/2024,2000,g 19.0,4.0
# From MPEC 2016-ED0
332P-I/Ikeya-Murakami,e,9.3791,3.8048,152.3297,3.081767,0.1821815,0.48955490,359.9360,03/17.0/2016,2000,g 20.5,2.0
# From MPEC 2016-EI8
332P-J/Ikeya-Murakami,e,9.4296,3.6729,152.7712,3.115165,0.1792596,0.49429435,359.8613,03/17.0/2016,2000,g 20.5,2.0
# From MPEC 2024-VJ2
333P/LINEAR,e,132.0219,115.7056,26.0173,4.220796,0.1136613,0.73631934,358.3748,11/15.0/2024,2000,g 15.0,4.0
# From MPEC 2023-J29
334P/NEAT,e,20.3693,90.4245,90.0401,6.827090,0.0552523,0.35149389,150.3749,11/15.0/2024,2000,g 10.5,4.0
# From MPEC 2023-M14
335P/Gibbs,e,7.2957,330.8027,162.3062,3.577437,0.1456619,0.54669165,120.2787,11/15.0/2024,2000,g 16.8,4.0
# From MPC105244
336P/McNaught,e,17.8376,298.1985,308.6230,5.037648,0.0871691,0.44462335,248.5402,11/15.0/2024,2000,g 13.5,4.0
# From MPEC 2024-A43
337P/WISE,e,16.0394,103.6109,163.9679,3.302688,0.1642112,0.49863911,141.8463,11/15.0/2024,2000,g 17.0,4.0
# From MPEC 2024-VJ2
338P/McNaught,e,25.3830,9.7898,4.5983,3.894343,0.1282487,0.41250784,13.3000,11/15.0/2024,2000,g 12.0,4.0
# From MPC101101
339P/Gibbs,e,5.7334,27.4693,172.6815,3.699197,0.1385297,0.63566299,61.2410,11/15.0/2024,2000,g 17.0,4.0
# From MPC133426
340P/Boattini,e,2.0788,291.6604,36.0694,4.247984,0.1125718,0.28017112,327.6623,11/15.0/2024,2000,g 14.3,4.0
# From MPEC 2023-J29
341P/Gibbs,e,3.7964,29.9574,312.3524,4.286399,0.1110619,0.41525925,342.3761,11/15.0/2024,2000,g 12.5,4.0
# From MPC101101
342P/SOHO,e,11.6955,73.3242,27.6330,3.041022,0.1858552,0.98296111,0.0000,02/07.5908/2027,2000,g  9.0,4.0
# From MPEC 2024-PC5
343P/NEAT-LONEOS,e,5.5976,257.0547,137.6028,5.457512,0.0773058,0.58509333,219.6985,11/15.0/2024,2000,g 14.0,4.0
# From MPEC 2023-J29
344P/Read,e,3.4994,273.1010,140.5927,4.856297,0.0920971,0.42380998,269.5958,11/15.0/2024,2000,g 13.0,4.0
# From MPEC 2024-TP3
345P/LINEAR,e,2.7281,154.5119,196.6875,4.031417,0.1217636,0.22126277,9.2949,11/15.0/2024,2000,g 12.0,4.0
# From MPEC 2022-K19
346P/Catalina,e,22.2191,102.4576,336.0433,4.469409,0.1043107,0.50392156,294.8910,11/15.0/2024,2000,g 14.0,4.0
# From MPEC 2024-RQ6
347P/PANSTARRS,e,11.7659,260.9913,98.2020,3.602730,0.1441307,0.38684270,69.8334,11/15.0/2024,2000,g 15.0,4.0
# From MPEC 2022-ED3
348P/PANSTARRS,e,17.7400,312.9195,135.7431,3.151770,0.1761458,0.30746649,177.1702,11/15.0/2024,2000,g 14.0,4.0
# From MPEC 2024-LE0
349P/Lemmon,e,5.4886,331.7437,255.7766,3.578408,0.1456027,0.29856613,25.0377,11/15.0/2024,2000,g 14.0,4.0
# From MPC111775
350P/McNaught,e,7.3638,65.2921,140.0433,4.081075,0.1195480,0.09457338,301.7310,11/15.0/2024,2000,g 14.0,4.0
# From MPC105244
351P/Wiegert-PANSTARRS,e,12.7745,352.6735,283.3042,4.440636,0.1053262,0.29472503,346.1669,11/15.0/2024,2000,g 12.5,4.0
# From MPEC 2023-J29
352P/Skiff,e,21.0093,28.0269,309.3987,6.653964,0.0574227,0.61640630,155.3154,11/15.0/2024,2000,g 13.2,4.0
# From MPEC 2020-AA5
353P/McNaught,e,28.4175,121.5168,230.4950,4.170663,0.1157168,0.46984426,291.3308,11/15.0/2024,2000,g 14.5,4.0
# From MPEC 2024-EF7
354P/LINEAR,e,5.2506,320.0662,132.8674,2.290092,0.2843969,0.12449449,113.1658,11/15.0/2024,2000,g 15.5,4.0
# From MPEC 2023-CD7
355P/LINEAR-NEAT,e,11.0461,51.4297,336.2893,3.468762,0.1525606,0.50808078,34.7335,11/15.0/2024,2000,g 15.5,2.0
# From MPEC 2022-F14
356P/WISE,e,9.6408,160.8000,226.1816,4.153436,0.1164375,0.35600707,293.1441,11/15.0/2024,2000,g 14.0,4.0
# From MPC114609
357P/Hill,e,6.3137,44.5765,1.4788,4.455491,0.1047999,0.43612636,246.9867,11/15.0/2024,2000,g 15.5,4.0
# From MPEC 2024-EF7
358P/PANSTARRS,e,11.0667,85.6668,299.4266,3.146993,0.1765471,0.23955326,65.5247,11/15.0/2024,2000,g 18.0,4.0
# From MPC110086
359P/LONEOS,e,10.2625,149.7591,200.2997,4.641706,0.0985570,0.32334703,260.2301,11/15.0/2024,2000,g 13.5,4.0
# From MPEC 2024-VJ2
360P/WISE,e,24.1093,2.1774,354.2858,3.697101,0.1386475,0.49915326,5.8552,11/15.0/2024,2000,g 19.5,6.0
# From MPEC 2023-CD7
361P/Spacewatch,e,13.9003,203.2454,219.0932,4.933171,0.0899528,0.43961193,208.9612,11/15.0/2024,2000,g 12.0,4.0
# From MPC114609
363P/Lemmon,e,5.3900,146.6325,340.8758,3.574428,0.1458459,0.51856479,0.2629,11/15.0/2024,2000,g 17.5,4.0
# From MPEC 2024-M41
364P/PANSTARRS,e,12.0180,46.0580,212.4785,2.895556,0.2000350,0.72014510,110.2115,11/15.0/2024,2000,g 17.0,2.0
# From MPC111775
365P/PANSTARRS,e,9.8501,86.6571,67.4182,3.156345,0.1757630,0.58151102,70.7582,11/15.0/2024,2000,g 17.0,4.0
# From MPC114610
366P/Spacewatch,e,8.8570,70.7227,153.0049,3.499435,0.1505591,0.34847396,348.4192,11/15.0/2024,2000,g 15.0,4.0
# From MPC112395
367P/Catalina,e,8.4596,58.6614,172.6993,3.511026,0.1498142,0.27999351,351.3729,11/15.0/2024,2000,g 17.5,2.0
# From MPC114610
368P/NEAT,e,15.4827,257.8555,118.9807,5.533755,0.0757137,0.62604130,170.5191,11/15.0/2024,2000,g 14.0,4.0
# From MPC114610
369P/Hill,e,10.3215,47.2938,13.2148,4.379179,0.1075512,0.55595871,238.6058,11/15.0/2024,2000,g 15.0,4.0
# From MPEC 2021-F20
370P/NEAT,e,19.4226,55.0825,356.7657,6.438593,0.0603278,0.61541537,141.6065,11/15.0/2024,2000,g 13.0,4.0
# From MPC114610
371P/LINEAR-Skiff,e,17.3853,67.2828,308.5719,4.180423,0.1153118,0.47677419,257.1681,11/15.0/2024,2000,g 16.0,4.0
# From MPEC 2020-K19
372P/McNaught,e,9.5059,27.5519,326.0117,4.511700,0.1028475,0.15151040,227.7259,11/15.0/2024,2000,g 13.5,4.0
# From MPEC 2021-F20
373P/Rinner,e,13.7702,231.9402,221.0924,3.797922,0.1331634,0.39374931,272.2593,11/15.0/2024,2000,g 14.5,4.0
# From MPC114610
374P/Larson,e,10.7628,7.8872,51.5457,4.971025,0.0889273,0.46376729,189.5701,11/15.0/2024,2000,g 14.0,4.0
# From MPEC 2021-F20
375P/Hill,e,17.3697,359.8645,119.4124,5.546079,0.0754614,0.66004363,162.5548,11/15.0/2024,2000,g 16.0,4.0
# From MPEC 2024-RQ6
376P/LONEOS,e,1.1662,312.8508,285.3932,5.756511,0.0713617,0.51374066,134.7970,11/15.0/2024,2000,g 12.5,4.0
# From MPEC 2022-N37
377P/Scotti,e,9.0266,225.9958,354.8691,6.696096,0.0568816,0.25118642,90.4240,11/15.0/2024,2000,g  9.5,4.0
# From MPEC 2024-VJ2
378P/McNaught,e,19.1547,93.7984,193.3579,6.289457,0.0624862,0.46426407,93.6121,11/15.0/2024,2000,g 12.0,4.0
# From MPC115889
379P/Spacewatch,e,12.4370,30.4766,184.5486,3.485836,0.1514411,0.35017336,289.6496,11/15.0/2024,2000,g 15.0,4.0
# From MPEC 2023-C45
380P/PANSTARRS,e,8.0244,127.8700,87.8722,4.434420,0.1055477,0.33547179,216.1686,11/15.0/2024,2000,g 12.5,4.0
# From MPEC 2021-J28
381P/LINEAR-Spacewatch,e,28.3503,173.3056,173.8540,7.144526,0.0516112,0.68086774,96.8775,11/15.0/2024,2000,g 17.5,2.0
# From MPEC 2024-MB8
382P/Larson,e,8.2593,171.1319,162.1775,5.913351,0.0685415,0.26838042,75.5330,11/15.0/2024,2000,g  8.0,4.0
# From MPEC 2022-OB6
